[{"OBJECT_NAME":"STARLINK-36313","OBJECT_ID":"2026-049Q","EPOCH":"2026-03-19T12:15:24.149088","MEAN_MOTION":16.03927223,"ECCENTRICITY":0.0002314,"INCLINATION":97.2787,"RA_OF_ASC_NODE":98.0771,"ARG_OF_PERICENTER":1.4479,"MEAN_ANOMALY":358.6808,"EPHEMERIS_TYPE":0,"CLASSIFICATION_TYPE":"U","NORAD_CAT_ID":68156,"ELEMENT_SET_NO":999,"REV_AT_EPOCH":95,"BSTAR":-0.00026937,"MEAN_MOTION_DOT":-0.00172305,"MEAN_MOTION_DDOT":1.3864e-5},{"OBJECT_NAME":"STARLINK-37064","OBJECT_ID":"2026-049R","EPOCH":"2026-03-19T12:16:14.522880","MEAN_MOTION":16.03667729,"ECCENTRICITY":0.00022388,"INCLINATION":97.2784,"RA_OF_ASC_NODE":98.0764,"ARG_OF_PERICENTER":357.8304,"MEAN_ANOMALY":2.2966,"EPHEMERIS_TYPE":0,"CLASSIFICATION_TYPE":"U","NORAD_CAT_ID":68157,"ELEMENT_SET_NO":999,"REV_AT_EPOCH":95,"BSTAR":-0.00022898351,"MEAN_MOTION_DOT":-0.00144348,"MEAN_MOTION_DDOT":1.0411467e-5},{"OBJECT_NAME":"STARLINK-37069","OBJECT_ID":"2026-049S","EPOCH":"2026-03-19T12:13:33.650400","MEAN_MOTION":16.06600253,"ECCENTRICITY":0.0001368,"INCLINATION":97.2784,"RA_OF_ASC_NODE":98.0788,"ARG_OF_PERICENTER":7.264,"MEAN_ANOMALY":352.8662,"EPHEMERIS_TYPE":0,"CLASSIFICATION_TYPE":"U","NORAD_CAT_ID":68158,"ELEMENT_SET_NO":999,"REV_AT_EPOCH":95,"BSTAR":0.0014785,"MEAN_MOTION_DOT":0.01093981,"MEAN_MOTION_DDOT":0.00068408},{"OBJECT_NAME":"STARLINK-37053","OBJECT_ID":"2026-049T","EPOCH":"2026-03-19T07:44:16.985184","MEAN_MOTION":16.05261971,"ECCENTRICITY":0.00025313,"INCLINATION":97.2784,"RA_OF_ASC_NODE":97.8738,"ARG_OF_PERICENTER":141.0873,"MEAN_ANOMALY":219.0591,"EPHEMERIS_TYPE":0,"CLASSIFICATION_TYPE":"U","NORAD_CAT_ID":68159,"ELEMENT_SET_NO":999,"REV_AT_EPOCH":92,"BSTAR":9.5454192e-5,"MEAN_MOTION_DOT":0.00065181,"MEAN_MOTION_DDOT":4.110318e-6},{"OBJECT_NAME":"STARLINK-36306","OBJECT_ID":"2026-049U","EPOCH":"2026-03-19T12:13:21.534528","MEAN_MOTION":16.04569636,"ECCENTRICITY":0.0002364,"INCLINATION":97.2782,"RA_OF_ASC_NODE":98.0789,"ARG_OF_PERICENTER":13.0399,"MEAN_ANOMALY":347.0943,"EPHEMERIS_TYPE":0,"CLASSIFICATION_TYPE":"U","NORAD_CAT_ID":68160,"ELEMENT_SET_NO":999,"REV_AT_EPOCH":95,"BSTAR":-0.00030343808,"MEAN_MOTION_DOT":-0.00201573,"MEAN_MOTION_DDOT":1.8201465e-5},{"OBJECT_NAME":"STARLINK-37057","OBJECT_ID":"2026-049V","EPOCH":"2026-03-19T07:45:00.944640","MEAN_MOTION":16.05035055,"ECCENTRICITY":0.000232,"INCLINATION":97.2783,"RA_OF_ASC_NODE":97.873,"ARG_OF_PERICENTER":150.0328,"MEAN_ANOMALY":210.1087,"EPHEMERIS_TYPE":0,"CLASSIFICATION_TYPE":"U","NORAD_CAT_ID":68161,"ELEMENT_SET_NO":999,"REV_AT_EPOCH":92,"BSTAR":0.00016636,"MEAN_MOTION_DOT":0.00112551,"MEAN_MOTION_DDOT":7.734e-6},{"OBJECT_NAME":"STARLINK-37013","OBJECT_ID":"2026-049W","EPOCH":"2026-03-19T12:11:26.870496","MEAN_MOTION":16.05836372,"ECCENTRICITY":0.0005289,"INCLINATION":97.2782,"RA_OF_ASC_NODE":98.0812,"ARG_OF_PERICENTER":356.1624,"MEAN_ANOMALY":3.9616,"EPHEMERIS_TYPE":0,"CLASSIFICATION_TYPE":"U","NORAD_CAT_ID":68162,"ELEMENT_SET_NO":999,"REV_AT_EPOCH":95,"BSTAR":0.00083676,"MEAN_MOTION_DOT":0.00596665,"MEAN_MOTION_DDOT":0.0001756},{"OBJECT_NAME":"STARLINK-36958","OBJECT_ID":"2026-049X","EPOCH":"2026-03-19T07:42:37.738368","MEAN_MOTION":16.06800152,"ECCENTRICITY":0.0002229,"INCLINATION":97.2782,"RA_OF_ASC_NODE":97.8761,"ARG_OF_PERICENTER":145.2478,"MEAN_ANOMALY":214.895,"EPHEMERIS_TYPE":0,"CLASSIFICATION_TYPE":"U","NORAD_CAT_ID":68163,"ELEMENT_SET_NO":999,"REV_AT_EPOCH":92,"BSTAR":0.0011064,"MEAN_MOTION_DOT":0.00833356,"MEAN_MOTION_DDOT":0.0003694},{"OBJECT_NAME":"STARLINK-37002","OBJECT_ID":"2026-049Y","EPOCH":"2026-03-19T12:12:47.055744","MEAN_MOTION":16.04788784,"ECCENTRICITY":0.0002556,"INCLINATION":97.2783,"RA_OF_ASC_NODE":98.0796,"ARG_OF_PERICENTER":7.0762,"MEAN_ANOMALY":353.0555,"EPHEMERIS_TYPE":0,"CLASSIFICATION_TYPE":"U","NORAD_CAT_ID":68164,"ELEMENT_SET_NO":999,"REV_AT_EPOCH":95,"BSTAR":-0.0001724,"MEAN_MOTION_DOT":-0.00116378,"MEAN_MOTION_DDOT":7.667e-6},{"OBJECT_NAME":"STARLINK-36971","OBJECT_ID":"2026-049Z","EPOCH":"2026-03-19T12:11:52.393056","MEAN_MOTION":16.05092719,"ECCENTRICITY":0.0002491,"INCLINATION":97.2781,"RA_OF_ASC_NODE":98.0809,"ARG_OF_PERICENTER":7.1165,"MEAN_ANOMALY":353.0151,"EPHEMERIS_TYPE":0,"CLASSIFICATION_TYPE":"U","NORAD_CAT_ID":68165,"ELEMENT_SET_NO":999,"REV_AT_EPOCH":95,"BSTAR":-0.0001641,"MEAN_MOTION_DOT":-0.00112852,"MEAN_MOTION_DDOT":7.3698e-6},{"OBJECT_NAME":"STARLINK-36273","OBJECT_ID":"2026-049AA","EPOCH":"2026-03-19T07:41:15.387072","MEAN_MOTION":16.07642662,"ECCENTRICITY":7.9e-5,"INCLINATION":97.2783,"RA_OF_ASC_NODE":97.8777,"ARG_OF_PERICENTER":29.1867,"MEAN_ANOMALY":330.946,"EPHEMERIS_TYPE":0,"CLASSIFICATION_TYPE":"U","NORAD_CAT_ID":68166,"ELEMENT_SET_NO":999,"REV_AT_EPOCH":92,"BSTAR":0.0011974,"MEAN_MOTION_DOT":0.00948095,"MEAN_MOTION_DDOT":0.0005017},{"OBJECT_NAME":"STARLINK-36969","OBJECT_ID":"2026-050A","EPOCH":"2026-03-19T13:41:02.541120","MEAN_MOTION":15.9734321,"ECCENTRICITY":4.88e-5,"INCLINATION":53.1618,"RA_OF_ASC_NODE":232.5443,"ARG_OF_PERICENTER":318.1927,"MEAN_ANOMALY":41.9065,"EPHEMERIS_TYPE":0,"CLASSIFICATION_TYPE":"U","NORAD_CAT_ID":68167,"ELEMENT_SET_NO":999,"REV_AT_EPOCH":203,"BSTAR":-0.0016788,"MEAN_MOTION_DOT":-0.00762286,"MEAN_MOTION_DDOT":0.00019812},{"OBJECT_NAME":"STARLINK-36984","OBJECT_ID":"2026-050B","EPOCH":"2026-03-19T13:40:45.953184","MEAN_MOTION":15.97468217,"ECCENTRICITY":5.65e-5,"INCLINATION":53.162,"RA_OF_ASC_NODE":232.5441,"ARG_OF_PERICENTER":333.0752,"MEAN_ANOMALY":27.0248,"EPHEMERIS_TYPE":0,"CLASSIFICATION_TYPE":"U","NORAD_CAT_ID":68168,"ELEMENT_SET_NO":999,"REV_AT_EPOCH":203,"BSTAR":-0.0016463,"MEAN_MOTION_DOT":-0.00752821,"MEAN_MOTION_DDOT":0.000194},{"OBJECT_NAME":"STARLINK-37077","OBJECT_ID":"2026-050C","EPOCH":"2026-03-19T13:40:26.349024","MEAN_MOTION":15.97622802,"ECCENTRICITY":7.45e-5,"INCLINATION":53.1619,"RA_OF_ASC_NODE":232.5425,"ARG_OF_PERICENTER":335.0992,"MEAN_ANOMALY":25.0002,"EPHEMERIS_TYPE":0,"CLASSIFICATION_TYPE":"U","NORAD_CAT_ID":68169,"ELEMENT_SET_NO":999,"REV_AT_EPOCH":203,"BSTAR":-0.0016046,"MEAN_MOTION_DOT":-0.00740191,"MEAN_MOTION_DDOT":0.00018853},{"OBJECT_NAME":"STARLINK-37003","OBJECT_ID":"2026-050D","EPOCH":"2026-03-19T13:40:06.896064","MEAN_MOTION":15.97788708,"ECCENTRICITY":4.61e-5,"INCLINATION":53.162,"RA_OF_ASC_NODE":232.5407,"ARG_OF_PERICENTER":327.9149,"MEAN_ANOMALY":32.1853,"EPHEMERIS_TYPE":0,"CLASSIFICATION_TYPE":"U","NORAD_CAT_ID":68170,"ELEMENT_SET_NO":999,"REV_AT_EPOCH":203,"BSTAR":-0.0015382,"MEAN_MOTION_DOT":-0.00716345,"MEAN_MOTION_DDOT":0.00017815},{"OBJECT_NAME":"STARLINK-37034","OBJECT_ID":"2026-050E","EPOCH":"2026-03-19T13:39:46.570464","MEAN_MOTION":15.9791914,"ECCENTRICITY":5.85e-5,"INCLINATION":53.1619,"RA_OF_ASC_NODE":232.5395,"ARG_OF_PERICENTER":340.0636,"MEAN_ANOMALY":20.0371,"EPHEMERIS_TYPE":0,"CLASSIFICATION_TYPE":"U","NORAD_CAT_ID":68171,"ELEMENT_SET_NO":999,"REV_AT_EPOCH":203,"BSTAR":-0.0015903,"MEAN_MOTION_DOT":-0.00745719,"MEAN_MOTION_DDOT":0.00019165}]
